NORAD_CAT_ID,OBJECT_NAME,OBJECT_TYPE,EPOCH,MEAN_MOTION,ECCENTRICITY,INCLINATION,RA_OF_ASC_NODE,ARG_OF_PERICENTER,MEAN_ANOMALY,BSTAR,MEAN_MOTION_DOT,MEAN_MOTION_DDOT,TLE_LINE0,TLE_LINE1,TLE_LINE2,SEMIMAJOR_AXIS,PERIOD,APOGEE,PERIGEE,DECAYED
56815.0,STARLINK-6057,PAYLOAD,2023-06-06 16:00:03,15.91365164,0.0027605,70.0036,35.8015,161.8189,108.1701,-0.0031621,-0.01051554,0.00032954,0 STARLINK-6057,1 56815U 23078BA  23157.66670139 -.01051554  32954-3 -31621-2 0  9995,2 56815  70.0036  35.8015 0027605 161.8189 108.1701 15.91365164  1302,6676.599,90.488,316.895,280.033,0.0
56815.0,STARLINK-6057,PAYLOAD,2023-06-06 22:00:00,15.90821521,0.0024857,70.0037,35.0765,162.0458,99.368,-0.0030105,-0.0096747,0.00028095,0 STARLINK-6057,1 56815U 23078BA  23157.91667824 -.00967470  28095-3 -30105-2 0  9999,2 56815  70.0037  35.0765 0024857 162.0458  99.3680 15.90821521  1305,6678.12,90.519,316.585,283.385,0.0
56815.0,STARLINK-6057,PAYLOAD,2023-06-07 07:28:17,15.90285313,0.0022108,70.0033,33.9329,155.9761,204.2482,-0.00091924,-0.00287444,3.0667e-05,0 STARLINK-6057,1 56815U 23078BA  23158.31131754 -.00287444  30667-4 -91924-3 0  9994,2 56815  70.0033  33.9329 0022108 155.9761 204.2482 15.90285313  1141,6679.621,90.55,316.253,286.719,0.0
56815.0,STARLINK-6057,PAYLOAD,2023-06-07 12:00:00,15.89681725,0.0019639,70.0029,33.3865,164.4893,195.4483,-0.0031766,-0.00953086,0.00027022,0 STARLINK-6057,1 56815U 23078BA  23158.50001157 -.00953086  27022-3 -31766-2 0  9997,2 56815  70.0029  33.3865 0019639 164.4893 195.4483 15.89681725  1430,6681.312,90.584,316.298,290.055,0.0
56815.0,STARLINK-6057,PAYLOAD,2023-06-07 20:00:01,15.89035303,0.0016451,70.0028,32.4221,165.7853,300.8159,-0.0034085,-0.00984601,0.00028519,0 STARLINK-6057,1 56815U 23078BA  23158.83334491 -.00984601  28519-3 -34085-2 0  9999,2 56815  70.0028  32.4221 0016451 165.7853 300.8159 15.89035303  1486,6683.123,90.621,315.983,293.994,0.0
56815.0,STARLINK-6057,PAYLOAD,2023-06-07 22:00:00,15.88852154,0.0015802,70.0023,32.1813,166.0036,57.144,-0.0032906,-0.0094129,0.00026193,0 STARLINK-6057,1 56815U 23078BA  23158.91667824 -.00941290  26193-3 -32906-2 0  9990,2 56815  70.0023  32.1813 0015802 166.0036  57.1440 15.88852154  1307,6683.637,90.631,316.063,294.94,0.0
56815.0,STARLINK-6057,PAYLOAD,2023-06-08 04:00:00,15.88402792,0.0013379,70.002,31.4583,168.1561,44.3073,-0.003637,-0.01013649,0.00029912,0 STARLINK-6057,1 56815U 23078BA  23159.16667824 -.01013649  29912-3 -36370-2 0  9998,2 56815  70.0020  31.4583 0013379 168.1561  44.3073 15.88402792  1537,6684.897,90.657,315.706,297.819,0.0
56815.0,STARLINK-6057,PAYLOAD,2023-06-08 12:00:00,15.87733565,0.0010945,70.0023,30.4957,173.5548,144.0022,-0.003603,-0.00969278,0.00027358,0 STARLINK-6057,1 56815U 23078BA  23159.50001157 -.00969278  27358-3 -36030-2 0  9999,2 56815  70.0023  30.4957 0010945 173.5548 144.0022 15.87733565  1597,6686.776,90.695,315.959,301.322,0.0
56815.0,STARLINK-6057,PAYLOAD,2023-06-08 12:10:46,15.87955082,0.0010822,70.0026,30.4737,172.6922,187.4443,-0.00036668,-0.00101143,7.1681e-06,0 STARLINK-6057,1 56815U 23078BA  23159.50747773 -.00101143  71681-5 -36668-3 0  9997,2 56815  70.0026  30.4737 0010822 172.6922 187.4443 15.87955082  1336,6686.154,90.683,315.255,300.783,0.0
56815.0,STARLINK-6057,PAYLOAD,2023-06-08 20:00:01,15.8709082,0.0007925,70.0025,29.5338,180.6419,241.2963,-0.0038839,-0.00916313,0.0,0 STARLINK-6057,1 56815U 23078BA  23159.83335648 -.00916313  00000-0 -38839-2 0  9993,2 56815  70.0025  29.5338 0007925 180.6419 241.2963 15.87090820  1641,6688.581,90.732,315.747,305.145,0.0
56815.0,STARLINK-6057,PAYLOAD,2023-06-08 22:00:00,15.86888581,0.0007204,70.0024,29.2937,182.0317,355.8068,-0.0035942,-0.00845573,0.0,0 STARLINK-6057,1 56815U 23078BA  23159.91667824 -.00845573  00000-0 -35942-2 0  9997,2 56815  70.0024  29.2937 0007204 182.0317 355.8068 15.86888581  1304,6689.149,90.744,315.833,306.195,0.0
56815.0,STARLINK-6057,PAYLOAD,2023-06-09 04:00:00,15.86450758,0.0005238,70.0023,28.573,194.2332,331.158,-0.004062,-0.00925329,0.0,0 STARLINK-6057,1 56815U 23078BA  23160.16667824 -.00925329  00000-0 -40620-2 0  9993,2 56815  70.0023  28.5730 0005238 194.2332 331.1580 15.86450758  1692,6690.38,90.769,315.749,308.74,0.0
56815.0,STARLINK-6057,PAYLOAD,2023-06-09 12:00:02,15.85774351,0.000403,70.0027,27.6131,221.1339,47.0715,-0.0039443,-0.00873621,0.0,0 STARLINK-6057,1 56815U 23078BA  23160.50002315 -.00873621  00000-0 -39443-2 0  9997,2 56815  70.0027  27.6131 0004030 221.1339  47.0715 15.85774351  1754,6692.282,90.807,316.844,311.45,0.0
56815.0,STARLINK-6057,PAYLOAD,2023-06-09 13:54:04,15.85911926,0.0006298,70.0032,27.3852,185.2019,174.912,-0.00041684,-0.00101591,0.0,0 STARLINK-6057,1 56815U 23078BA  23160.57921455 -.00101591  00000-0 -41684-3 0  9990,2 56815  70.0032  27.3852 0006298 185.2019 174.9120 15.85911926  1504,6691.895,90.799,317.975,309.546,0.0
56815.0,STARLINK-6057,PAYLOAD,2023-06-09 20:00:01,15.85135512,0.0003492,70.0033,26.6541,255.718,114.3894,-0.0042815,-0.00914721,0.0,0 STARLINK-6057,1 56815U 23078BA  23160.83334491 -.00914721  00000-0 -42815-2 0  9990,2 56815  70.0033  26.6541 0003492 255.7180 114.3894 15.85135512  1805,6694.08,90.844,318.283,313.608,0.0
56815.0,STARLINK-6057,PAYLOAD,2023-06-09 22:00:00,15.84950653,0.0003301,70.0034,26.4147,262.4245,223.056,-0.0040952,-0.00871355,0.0,0 STARLINK-6057,1 56815U 23078BA  23160.91667824 -.00871355  00000-0 -40952-2 0  9993,2 56815  70.0034  26.4147 0003301 262.4245 223.0560 15.84950653  1305,6694.601,90.855,318.676,314.256,0.0
56815.0,STARLINK-6057,PAYLOAD,2023-06-10 04:00:01,15.84509245,0.0003417,70.0029,25.6962,270.8532,200.49,-0.0046002,-0.00949678,0.0,0 STARLINK-6057,1 56815U 23078BA  23161.16668981 -.00949678  00000-0 -46002-2 0  9992,2 56815  70.0029  25.6962 0003417 270.8532 200.4900 15.84509245  1859,6695.844,90.88,319.997,315.421,0.0
56815.0,STARLINK-6057,PAYLOAD,2023-06-10 12:00:02,15.83808905,0.0003493,70.0031,24.7393,263.575,308.1781,-0.0042588,-0.00859167,0.0,0 STARLINK-6057,1 56815U 23078BA  23161.50002315 -.00859167  00000-0 -42588-2 0  9991,2 56815  70.0031  24.7393 0003493 263.5750 308.1781 15.83808905  1908,6697.818,90.92,322.022,317.343,0.0
56815.0,STARLINK-6057,PAYLOAD,2023-06-10 14:00:01,15.83683494,0.0003658,70.0032,24.5004,264.4407,62.2106,-0.0046025,-0.00916943,0.0,0 STARLINK-6057,1 56815U 23078BA  23161.58334491 -.00916943  00000-0 -46025-2 0  9998,2 56815  70.0032  24.5004 0003658 264.4407  62.2106 15.83683494  1305,6698.171,90.927,322.486,317.586,0.0
56815.0,STARLINK-6057,PAYLOAD,2023-06-10 20:00:01,15.8317456,0.0003653,70.0031,23.7835,267.7299,43.5786,-0.0046894,-0.00912405,0.0,0 STARLINK-6057,1 56815U 23078BA  23161.83334491 -.00912405  00000-0 -46894-2 0  9999,2 56815  70.0031  23.7835 0003653 267.7299  43.5786 15.83174560  1964,6699.607,90.956,323.919,319.024,0.0
56815.0,STARLINK-6057,PAYLOAD,2023-06-10 22:00:00,15.82993298,0.0003653,70.0029,23.5446,271.5766,154.5163,-0.0045212,-0.00875855,0.0,0 STARLINK-6057,1 56815U 23078BA  23161.91667824 -.00875855  00000-0 -45212-2 0  9997,2 56815  70.0029  23.5446 0003653 271.5766 154.5163 15.82993298  1305,6700.118,90.967,324.431,319.536,0.0
56815.0,STARLINK-6057,PAYLOAD,2023-06-11 14:00:01,15.81733871,0.0003686,70.0028,21.6355,264.7967,357.7669,-0.0051218,-0.00929388,0.0,0 STARLINK-6057,1 56815U 23078BA  23162.58334491 -.00929388  00000-0 -51218-2 0  9996,2 56815  70.0028  21.6355 0003686 264.7967 357.7669 15.81733871  1301,6703.674,91.039,328.01,323.068,0.0
56815.0,STARLINK-6057,PAYLOAD,2023-06-11 20:00:01,15.81206959,0.000372,70.0028,20.9205,270.2284,335.2361,-0.0050354,-0.00895149,0.0,0 STARLINK-6057,1 56815U 23078BA  23162.83334491 -.00895149  00000-0 -50354-2 0  9991,2 56815  70.0028  20.9205 0003720 270.2284 335.2361 15.81206959  2112,6705.163,91.07,329.523,324.534,0.0
56815.0,STARLINK-6057,PAYLOAD,2023-06-12 12:00:00,15.7990696,0.0003597,70.003,19.0166,268.1544,169.491,-0.0052288,-0.00877178,0.0,0 STARLINK-6057,1 56815U 23078BA  23163.50001157 -.00877178  00000-0 -52288-2 0  9996,2 56815  70.0030  19.0166 0003597 268.1544 169.4910 15.79906960  2222,6708.841,91.145,333.119,328.293,0.0
56815.0,STARLINK-6057,PAYLOAD,2023-06-12 20:00:01,15.79242151,0.0003466,70.0034,18.0662,272.1209,260.4587,-0.0053947,-0.00877798,0.0,0 STARLINK-6057,1 56815U 23078BA  23163.83334491 -.00877798  00000-0 -53947-2 0  9993,2 56815  70.0034  18.0662 0003466 272.1209 260.4587 15.79242151  2276,6710.724,91.183,334.915,330.263,0.0
56815.0,STARLINK-6057,PAYLOAD,2023-06-12 22:00:00,15.79075955,0.0003533,70.0033,17.8287,272.7845,13.4003,-0.005332,-0.00862628,0.0,0 STARLINK-6057,1 56815U 23078BA  23163.91667824 -.00862628  00000-0 -53320-2 0  9992,2 56815  70.0033  17.8287 0003533 272.7845  13.4003 15.79075955  1300,6711.195,91.193,335.431,330.688,0.0
56815.0,STARLINK-6057,PAYLOAD,2023-06-13 12:00:00,15.77954992,0.000357,70.0028,16.1679,268.3144,91.7493,-0.0057716,-0.00885251,0.0,0 STARLINK-6057,1 56815U 23078BA  23164.50001157 -.00885251  00000-0 -57716-2 0  9999,2 56815  70.0028  16.1679 0003570 268.3144  91.7493 15.77954992  2381,6714.373,91.257,338.635,333.841,0.0
56815.0,STARLINK-6057,PAYLOAD,2023-06-13 14:00:01,15.77826307,0.0003416,70.003,15.9309,269.0107,204.2597,-0.0062175,-0.00941706,0.0,0 STARLINK-6057,1 56815U 23078BA  23164.58334491 -.00941706  00000-0 -62175-2 0  9990,2 56815  70.0030  15.9309 0003416 269.0107 204.2597 15.77826307  1302,6714.738,91.265,338.896,334.309,0.0
56815.0,STARLINK-6057,PAYLOAD,2023-06-13 22:00:00,15.77120033,0.0003341,70.0025,14.9833,273.6516,292.0191,-0.0058242,-0.00862712,0.0,0 STARLINK-6057,1 56815U 23078BA  23164.91667824 -.00862712  00000-0 -58242-2 0  9995,2 56815  70.0025  14.9833 0003341 273.6516 292.0191 15.77120033  1307,6716.742,91.306,340.851,336.363,0.0
